{
  "type": "FeatureCollection",
  "features": [
    {
      "type": "Feature",
      "properties": {
        "norad_id": 41556,
        "name": "ZIYUAN 3-2 (ZY 3-2)",
        "group": "resource",
        "lat": -25.40905502542219,
        "lon": 57.31061577684965,
        "alt_km": 502.7803937281624,
        "timestamp": "2025-12-05T11:32:55.683786+00:00",
        "meta_object_name": "ZIYUAN 3-2 (ZY 3-2)",
        "meta_object_id": "2016-033A",
        "meta_epoch": "2025-12-04T18:17:48.832800",
        "meta_mean_motion": 15.2132571,
        "meta_eccentricity": 0.0012451,
        "meta_inclination": 97.4059,
        "meta_ra_of_asc_node": 53.0611,
        "meta_arg_of_pericenter": 280.2561,
        "meta_mean_anomaly": 79.727,
        "meta_ephemeris_type": 0,
        "meta_classification_type": "U",
        "meta_norad_cat_id": 41556,
        "meta_element_set_no": 999,
        "meta_rev_at_epoch": 52842,
        "meta_bstar": 0.00070496,
        "meta_mean_motion_dot": 0.00015765,
        "meta_mean_motion_ddot": 0,
        "tle_line1": "1 41556U 16033A   25338.76237075  .00015765  00000+0  70496-3 0  9994",
        "tle_line2": "2 41556  97.4059  53.0611 0012451 280.2561  79.7270 15.21325710528420"
      },
      "geometry": {
        "type": "Point",
        "coordinates": [
          57.31061577684965,
          -25.40905502542219
        ]
      }
    },
    {
      "type": "Feature",
      "properties": {
        "norad_id": 41599,
        "name": "CARTOSAT-2C",
        "group": "resource",
        "lat": -24.80297242026747,
        "lon": 40.286785475381,
        "alt_km": 516.7194598792503,
        "timestamp": "2025-12-05T11:32:55.683796+00:00",
        "meta_object_name": "CARTOSAT-2C",
        "meta_object_id": "2016-040A",
        "meta_epoch": "2025-12-04T18:16:12.292896",
        "meta_mean_motion": 15.1918306,
        "meta_eccentricity": 0.0011051,
        "meta_inclination": 97.4782,
        "meta_ra_of_asc_node": 36.0939,
        "meta_arg_of_pericenter": 89.4186,
        "meta_mean_anomaly": 270.8314,
        "meta_ephemeris_type": 0,
        "meta_classification_type": "U",
        "meta_norad_cat_id": 41599,
        "meta_element_set_no": 999,
        "meta_rev_at_epoch": 52419,
        "meta_bstar": 0.00082852,
        "meta_mean_motion_dot": 0.00017415,
        "meta_mean_motion_ddot": 0,
        "tle_line1": "1 41599U 16040A   25338.76125339  .00017415  00000+0  82852-3 0  9991",
        "tle_line2": "2 41599  97.4782  36.0939 0011051  89.4186 270.8314 15.19183060524191"
      },
      "geometry": {
        "type": "Point",
        "coordinates": [
          40.286785475381,
          -24.80297242026747
        ]
      }
    },
    {
      "type": "Feature",
      "properties": {
        "norad_id": 41601,
        "name": "SKYSAT-C1",
        "group": "resource",
        "lat": 44.465194464710635,
        "lon": 9.995749779415313,
        "alt_km": 462.8188504155214,
        "timestamp": "2025-12-05T11:32:55.683807+00:00",
        "meta_object_name": "SKYSAT-C1",
        "meta_object_id": "2016-040C",
        "meta_epoch": "2025-12-04T16:32:49.870176",
        "meta_mean_motion": 15.32368766,
        "meta_eccentricity": 0.0003198,
        "meta_inclination": 96.9832,
        "meta_ra_of_asc_node": 16.1585,
        "meta_arg_of_pericenter": 35.658,
        "meta_mean_anomaly": 324.4876,
        "meta_ephemeris_type": 0,
        "meta_classification_type": "U",
        "meta_norad_cat_id": 41601,
        "meta_element_set_no": 999,
        "meta_rev_at_epoch": 52804,
        "meta_bstar": 0.00060167,
        "meta_mean_motion_dot": 0.00018759,
        "meta_mean_motion_ddot": 0,
        "tle_line1": "1 41601U 16040C   25338.68946609  .00018759  00000+0  60167-3 0  9994",
        "tle_line2": "2 41601  96.9832  16.1585 0003198  35.6580 324.4876 15.32368766528045"
      },
      "geometry": {
        "type": "Point",
        "coordinates": [
          9.995749779415313,
          44.465194464710635
        ]
      }
    },
    {
      "type": "Feature",
      "properties": {
        "norad_id": 41603,
        "name": "LAPAN-A3",
        "group": "resource",
        "lat": -33.98428336836101,
        "lon": 152.45353005024754,
        "alt_km": 483.8379931995796,
        "timestamp": "2025-12-05T11:32:55.683817+00:00",
        "meta_object_name": "LAPAN-A3",
        "meta_object_id": "2016-040E",
        "meta_epoch": "2025-12-04T18:56:04.639776",
        "meta_mean_motion": 15.31454935,
        "meta_eccentricity": 0.0010669,
        "meta_inclination": 97.142,
        "meta_ra_of_asc_node": 336.6353,
        "meta_arg_of_pericenter": 3.3342,
        "meta_mean_anomaly": 356.797,
        "meta_ephemeris_type": 0,
        "meta_classification_type": "U",
        "meta_norad_cat_id": 41603,
        "meta_element_set_no": 999,
        "meta_rev_at_epoch": 52504,
        "meta_bstar": 0.0002488,
        "meta_mean_motion_dot": 7.497e-05,
        "meta_mean_motion_ddot": 0,
        "tle_line1": "1 41603U 16040E   25338.78894259  .00007497  00000+0  24880-3 0  9999",
        "tle_line2": "2 41603  97.1420 336.6353 0010669   3.3342 356.7970 15.31454935525048"
      },
      "geometry": {
        "type": "Point",
        "coordinates": [
          152.45353005024754,
          -33.98428336836101
        ]
      }
    },
    {
      "type": "Feature",
      "properties": {
        "norad_id": 41604,
        "name": "BIROS",
        "group": "resource",
        "lat": -1.3637112425562614,
        "lon": 10.809164510197938,
        "alt_km": 316.59863848594796,
        "timestamp": "2025-12-05T11:32:55.683827+00:00",
        "meta_object_name": "BIROS",
        "meta_object_id": "2016-040F",
        "meta_epoch": "2025-12-04T14:21:45.694656",
        "meta_mean_motion": 15.86388554,
        "meta_eccentricity": 0.0002893,
        "meta_inclination": 97.0693,
        "meta_ra_of_asc_node": 9.7256,
        "meta_arg_of_pericenter": 168.0467,
        "meta_mean_anomaly": 192.0874,
        "meta_ephemeris_type": 0,
        "meta_classification_type": "U",
        "meta_norad_cat_id": 41604,
        "meta_element_set_no": 999,
        "meta_rev_at_epoch": 52743,
        "meta_bstar": 0.00092982,
        "meta_mean_motion_dot": 0.00237554,
        "meta_mean_motion_ddot": 0,
        "tle_line1": "1 41604U 16040F   25338.59844554  .00237554  00000+0  92982-3 0  9999",
        "tle_line2": "2 41604  97.0693   9.7256 0002893 168.0467 192.0874 15.86388554527439"
      },
      "geometry": {
        "type": "Point",
        "coordinates": [
          10.809164510197938,
          -1.3637112425562614
        ]
      }
    },
    {
      "type": "Feature",
      "properties": {
        "norad_id": 41727,
        "name": "GAOFEN-3",
        "group": "resource",
        "lat": 18.919226359525872,
        "lon": 168.0825621623889,
        "alt_km": 751.4308466391003,
        "timestamp": "2025-12-05T11:32:55.683838+00:00",
        "meta_object_name": "GAOFEN-3",
        "meta_object_id": "2016-049A",
        "meta_epoch": "2025-12-04T18:09:18.652032",
        "meta_mean_motion": 14.42210005,
        "meta_eccentricity": 0.0001582,
        "meta_inclination": 98.4041,
        "meta_ra_of_asc_node": 344.4644,
        "meta_arg_of_pericenter": 71.9041,
        "meta_mean_anomaly": 288.2321,
        "meta_ephemeris_type": 0,
        "meta_classification_type": "U",
        "meta_norad_cat_id": 41727,
        "meta_element_set_no": 999,
        "meta_rev_at_epoch": 49062,
        "meta_bstar": 2.8387e-06,
        "meta_mean_motion_dot": -3.4e-07,
        "meta_mean_motion_ddot": 0,
        "tle_line1": "1 41727U 16049A   25338.75646588 -.00000034  00000+0  28387-5 0  9991",
        "tle_line2": "2 41727  98.4041 344.4644 0001582  71.9041 288.2321 14.42210005490622"
      },
      "geometry": {
        "type": "Point",
        "coordinates": [
          168.0825621623889,
          18.919226359525872
        ]
      }
    },
    {
      "type": "Feature",
      "properties": {
        "norad_id": 41771,
        "name": "SKYSAT-C4",
        "group": "resource",
        "lat": 83.04845444609859,
        "lon": -82.05237899317838,
        "alt_km": 432.40718946441666,
        "timestamp": "2025-12-05T11:32:55.683848+00:00",
        "meta_object_name": "SKYSAT-C4",
        "meta_object_id": "2016-058B",
        "meta_epoch": "2025-12-04T14:54:49.524192",
        "meta_mean_motion": 15.41902594,
        "meta_eccentricity": 7.87e-05,
        "meta_inclination": 96.9377,
        "meta_ra_of_asc_node": 4.2062,
        "meta_arg_of_pericenter": 123.0902,
        "meta_mean_anomaly": 237.0422,
        "meta_ephemeris_type": 0,
        "meta_classification_type": "U",
        "meta_norad_cat_id": 41771,
        "meta_element_set_no": 999,
        "meta_rev_at_epoch": 51542,
        "meta_bstar": 0.0006825,
        "meta_mean_motion_dot": 0.00028987,
        "meta_mean_motion_ddot": 0,
        "tle_line1": "1 41771U 16058B   25338.62140653  .00028987  00000+0  68250-3 0  9995",
        "tle_line2": "2 41771  96.9377   4.2062 0000787 123.0902 237.0422 15.41902594515423"
      },
      "geometry": {
        "type": "Point",
        "coordinates": [
          -82.05237899317838,
          83.04845444609859
        ]
      }
    }
  ]
}